KUIPER-00112            
1 65150U 25171U   25281.30910404  .00055111  00000+0  15013-2 0  9996
2 65150  51.8774 125.9982 0005205 347.9699  12.1162 15.36939437 10123
KUIPER-00114            
1 65151U 25171V   25279.86320570  .00015133  00000+0  11612-2 0  9995
2 65151  51.8887 137.0248 0001278 245.1959 114.8880 15.01955753  9847
KUIPER-00115            
1 65152U 25171W   25280.92074497 -.00200069  00000+0 -90915-2 0  9998
2 65152  51.8825 128.6340 0008159 347.4203  12.6572 15.21115934 10051
KUIPER-00116            
1 65153U 25171X   25281.50002315 -.01690417  00000+0 -12391+0 0  9994
2 65153  51.8907 128.1005 0007042 311.4357 266.9265 15.06364677  4416
KUIPER-00118            
1 65154U 25171Y   25281.50002315  .00043846  00000+0  36787-2 0  9998
2 65154  51.8886 129.4213 0004396 329.4895  44.9074 14.97925546  5468
KUIPER-00119            
1 65155U 25171Z   25281.30165122  .00041618  00000+0  14064-2 0  9992
2 65155  51.8769 125.9120 0006413 311.4622  48.5810 15.30226202 10126
KUIPER-00120            
1 65762U 25217A   25268.69913116  .00076857  00000+0  23007-2 0  9998
2 65762  51.8675  81.4801 0010991 119.3525 240.8559 15.33791109    44
KUIPER-00132            
1 65763U 25217B   25280.66670139  .00067629  00000+0  19482-2 0  9994
2 65763  51.8672  23.8215 0006657 143.5664 144.8257 15.35095353  1306
